OBJECT_NAME,OBJECT_ID,EPOCH,MEAN_MOTION,ECCENTRICITY,INCLINATION,RA_OF_ASC_NODE,ARG_OF_PERICENTER,MEAN_ANOMALY,EPHEMERIS_TYPE,CLASSIFICATION_TYPE,NORAD_CAT_ID,ELEMENT_SET_NO,REV_AT_EPOCH,BSTAR,MEAN_MOTION_DOT,MEAN_MOTION_DDOT
STARLINK-1433,2020-035BG,2022-06-14T20:31:01.625952,15.06401246,.0001828,53.0562,39.1096,67.6460,292.4723,0,U,45711,999,11318,.1403E-4,-.73E-6,0
STARLINK-1434,2020-035BH,2022-06-15T01:12:20.796480,15.06371666,.0001558,53.0561,38.2460,78.6746,281.4418,0,U,45712,999,11321,.33299E-3,.4678E-4,0
STARLINK-1436,2020-035BJ,2022-06-14T20:54:54.953568,15.06395881,.0001786,53.0550,59.0270,67.3009,292.8169,0,U,45713,999,11330,-.19561E-4,-.573E-5,0
STARLINK-1437,2020-035BK,2022-06-14T20:41:38.705856,15.06396342,.0001932,53.0560,39.0793,57.0116,303.1059,0,U,45714,999,11318,-.17602E-4,-.544E-5,0
HAIYANG-1D,2020-036A,2022-06-15T05:17:06.472320,14.34153038,.0002648,98.5171,104.6151,91.3710,268.7780,0,U,45721,999,10528,.38407E-4,.64E-6,0
CZ-2C R/B,2020-036B,2022-06-14T20:32:32.250912,14.46374897,.0051919,98.6399,127.9680,23.5888,336.7668,0,U,45722,999,10610,.76885E-4,.233E-5,0
ANDESITE,2020-037D,2022-06-15T11:47:29.726592,14.92828554,.0014622,97.7378,343.4906,31.1222,329.0879,0,U,45726,999,10659,.13145E-3,.1306E-4,0
M2 PATHFINDER,2020-037E,2022-06-15T00:07:35.242464,14.92015311,.0013602,97.7340,341.5131,48.3621,311.8753,0,U,45727,999,10646,.66517E-4,.619E-5,0
STARLINK-1461,2020-038A,2022-06-14T11:24:20.151072,15.06387448,.0001077,53.0580,240.8249,58.3623,301.7471,0,U,45730,999,11058,-.85563E-5,-.409E-5,0
STARLINK-1465,2020-038B,2022-06-15T11:38:40.268256,15.06384031,.0001555,53.0542,236.2825,66.4029,293.7123,0,U,45731,999,11169,-.11024E-3,-.1922E-4,0
STARLINK-1466,2020-038C,2022-06-15T11:22:44.805216,15.06386601,.0001682,53.0554,236.3306,59.5119,300.6036,0,U,45732,999,11184,-.79691E-4,-.1468E-4,0
STARLINK-1467,2020-038D,2022-06-15T11:33:21.232800,15.06386244,.0001538,53.0532,236.2973,51.9767,308.1361,0,U,45733,999,11184,.17156E-5,-.256E-5,0
STARLINK-1468,2020-038E,2022-06-15T11:06:49.123584,15.06389950,.0001622,53.0539,236.3898,56.8408,303.2737,0,U,45734,999,11183,.38017E-5,-.225E-5,0
STARLINK-1471,2020-038F,2022-06-15T11:59:53.634912,15.06390280,.0001202,53.0547,236.2255,81.9899,278.1227,0,U,45735,999,11184,-.73711E-4,-.1379E-4,0
STARLINK-1472,2020-038G,2022-06-15T09:41:00.496608,15.37701456,.0001464,53.0602,208.5654,308.9511,51.1361,0,U,45736,999,11223,.27068E-3,.9792E-4,0
STARLINK-1474,2020-038J,2022-06-15T11:43:59.133504,15.06385772,.0001464,53.0556,236.2763,67.0547,293.0597,0,U,45738,999,11184,-.85683E-4,-.1557E-4,0
STARLINK-1475,2020-038K,2022-06-15T08:52:59.611296,15.06922184,.0001707,53.0555,196.7868,50.7443,309.3698,0,U,45739,999,11223,.33048E-2,.49997E-3,0
STARLINK-1479,2020-038L,2022-06-15T11:54:36.570240,15.06380073,.0001454,53.0543,236.2393,68.9925,291.1220,0,U,45740,999,11184,-.20841E-3,-.3383E-4,0
STARLINK-1480,2020-038M,2022-06-15T11:12:07.641504,15.06388986,.0001525,53.0538,236.3754,65.4248,294.6900,0,U,45741,999,11184,-.91291E-4,-.1641E-4,0
STARLINK-1481,2020-038N,2022-06-15T11:01:30.752544,15.06387572,.0001606,53.0544,236.3906,58.9513,301.1633,0,U,45742,999,11183,-.58345E-4,-.115E-4,0
STARLINK-1483,2020-038P,2022-06-14T11:33:35.120736,15.06395684,.000217,53.0608,240.7078,31.6003,328.5116,0,U,45743,999,11154,-.37729E-4,-.844E-5,0
STARLINK-1500,2020-038Q,2022-06-15T10:45:35.936640,15.06386333,.0001575,53.0552,236.4411,58.0261,302.0881,0,U,45744,999,11164,-.15682E-3,-.2616E-4,0
STARLINK-1503,2020-038R,2022-06-15T10:29:40.123680,15.06380420,.0001457,53.0537,236.4917,77.3249,282.7903,0,U,45745,999,11164,-.10339E-3,-.182E-4,0
STARLINK-1504,2020-038S,2022-06-15T10:50:54.078720,15.06385857,.000172,53.0557,236.4288,47.7987,312.3148,0,U,45746,999,11164,-.68801E-4,-.1306E-4,0
STARLINK-1506,2020-038T,2022-06-15T10:56:12.535296,15.06380680,.0001499,53.0544,236.4170,57.4241,302.6892,0,U,45747,999,11164,-.91547E-4,-.1644E-4,0
STARLINK-1507,2020-038U,2022-06-15T10:38:54.853152,15.06392335,.0001303,53.0557,236.4616,75.7031,284.4103,0,U,45748,999,11165,-.31212E-4,-.746E-5,0
STARLINK-1391,2020-038W,2022-06-15T01:46:50.674368,15.06394981,.0001733,53.0535,218.1288,58.2605,301.8553,0,U,45750,999,11206,-.84309E-4,-.1537E-4,0
STARLINK-1464,2020-038X,2022-06-15T09:39:14.774112,15.06386952,.0001546,53.0561,216.6634,51.7146,308.3982,0,U,45751,999,11211,-.29233E-4,-.717E-5,0
STARLINK-1469,2020-038Y,2022-06-15T10:58:56.746272,15.77985237,.000956,52.9962,264.7278,316.1973,43.8288,0,U,45752,999,11643,.23813E-3,.40861E-3,0
STARLINK-1476,2020-038Z,2022-06-15T09:55:10.104096,15.06389143,.0001731,53.0529,216.6113,58.8876,301.2282,0,U,45753,999,11211,-.1175E-3,-.2031E-4,0
STARLINK-1477,2020-038AA,2022-06-15T10:00:28.391328,15.06397707,.0001428,53.0545,216.5864,79.8992,280.2158,0,U,45754,999,11196,-.13058E-3,-.2226E-4,0
STARLINK-1478,2020-038AB,2022-06-15T10:27:00.853056,15.06388001,.0001381,53.0525,216.5116,62.1687,297.9442,0,U,45755,999,11211,-.13776E-3,-.2332E-4,0
STARLINK-1484,2020-038AC,2022-06-15T10:20:20.751936,15.06388089,.0001632,53.0545,216.5181,64.4324,295.6833,0,U,45756,999,11211,-.14507E-3,-.2441E-4,0
STARLINK-1486,2020-038AD,2022-06-15T10:48:14.093568,15.06398539,.0001762,53.0542,216.4432,49.2020,310.9122,0,U,45757,999,11211,-.51575E-4,-.105E-4,0
STARLINK-1487,2020-038AE,2022-06-15T10:37:37.807680,15.06388194,.0001543,53.0541,216.4692,48.6137,311.4985,0,U,45758,999,11211,-.50231E-4,-.1029E-4,0
STARLINK-1493,2020-038AF,2022-06-15T10:11:05.279424,15.06390196,.0001772,53.0558,216.5542,46.0124,314.1011,0,U,45759,999,11192,-.14132E-3,-.2385E-4,0
STARLINK-1494,2020-038AG,2022-06-15T10:16:24.013344,15.06386191,.0001636,53.0531,216.5474,53.5827,306.5312,0,U,45760,999,11192,-.90239E-4,-.1625E-4,0
STARLINK-1495,2020-038AH,2022-06-15T05:54:38.697408,15.76719582,.0003334,53.0464,102.7114,13.3821,346.7286,0,U,45761,999,11351,-.79981E-4,-.13728E-3,0
STARLINK-1499,2020-038AJ,2022-06-15T11:47:38.774400,15.08168185,.0000467,53.0534,215.8469,77.5023,282.6019,0,U,45762,999,11194,.1869E-3,.2636E-4,0
STARLINK-1501,2020-038AK,2022-06-15T01:12:22.118400,15.82843218,.00063,53.0424,50.5625,24.7076,335.4247,0,U,45763,999,11420,.53594E-3,.116943E-2,0
STARLINK-1502,2020-038AL,2022-06-14T11:05:45.482208,15.06396165,.0001592,53.0542,220.8805,62.8940,297.2212,0,U,45764,999,11086,.14583E-3,.1891E-4,0
STARLINK-1509,2020-038AN,2022-06-15T02:45:13.740768,15.06396165,.0001693,53.0536,217.9422,52.3269,307.7873,0,U,45766,999,11187,-.17279E-4,-.539E-5,0
STARLINK-1511,2020-038AP,2022-06-15T10:32:19.282848,15.06397749,.0001755,53.0551,216.5004,47.4561,312.6576,0,U,45767,999,11192,-.13689E-3,-.232E-4,0
STARLINK-1521,2020-038AQ,2022-06-15T10:05:46.408992,15.06390445,.0001607,53.0530,216.5712,60.2214,299.8935,0,U,45768,999,11192,-.34629E-4,-.797E-5,0
STARLINK-1459,2020-038AR,2022-06-14T10:47:10.472928,15.06393331,.0001675,53.0562,240.9470,71.6304,288.4867,0,U,45769,999,11057,.5939E-4,.603E-5,0
STARLINK-1462,2020-038AS,2022-06-15T10:44:13.585344,15.06388532,.0001525,53.0554,196.4488,57.1607,302.9529,0,U,45770,999,11239,-.80336E-4,-.1477E-4,0
STARLINK-1463,2020-038AT,2022-06-15T08:59:25.276704,15.06400422,.0001658,53.0545,196.7926,63.9254,296.1906,0,U,45771,999,11238,.57726E-4,.578E-5,0
STARLINK-1470,2020-038AU,2022-06-15T08:43:31.169280,15.06393726,.0001459,53.0546,196.8165,74.8298,285.2853,0,U,45772,999,11238,.74888E-4,.834E-5,0
STARLINK-1482,2020-038AV,2022-06-15T11:43:58.139040,15.06390822,.0001546,53.0547,196.2741,62.8250,297.2897,0,U,45773,999,11225,.25368E-6,-.278E-5,0
STARLINK-1485,2020-038AW,2022-06-15T11:01:29.594784,15.06438283,.0001564,53.0549,196.4065,54.2671,305.8463,0,U,45774,999,11240,-.54653E-3,-.8421E-4,0
STARLINK-1488,2020-038AX,2022-06-14T19:11:25.293984,15.06395007,.0001546,53.0545,199.3662,73.5419,286.5740,0,U,45775,999,11119,.59314E-4,.602E-5,0
STARLINK-1489,2020-038AY,2022-06-15T11:17:25.569312,15.06392823,.0001723,53.0555,196.3460,55.3466,304.7685,0,U,45776,999,11240,.67729E-4,.727E-5,0
STARLINK-1490,2020-038AZ,2022-06-15T09:36:34.888320,15.06401083,.0001837,53.0553,196.6764,55.1308,304.9854,0,U,45777,999,11240,.45147E-4,.391E-5,0
STARLINK-1491,2020-038BA,2022-06-14T18:50:11.524704,15.06395027,.0001279,53.0535,199.4203,77.8245,282.2887,0,U,45778,999,11117,.94035E-4,.1119E-4,0
STARLINK-1492,2020-038BB,2022-06-15T02:42:34.311168,15.06393764,.0001796,53.0531,197.9481,26.5572,333.5508,0,U,45779,999,11234,-.47753E-4,-.993E-5,0
STARLINK-1496,2020-038BC,2022-06-15T09:20:39.196320,15.06397113,.0001703,53.0523,196.7175,50.6338,309.4802,0,U,45780,999,11219,.83086E-4,.956E-5,0
STARLINK-1497,2020-038BD,2022-06-14T11:40:15.296160,15.06396916,.0001752,53.0532,200.7717,60.8205,299.2959,0,U,45781,999,11113,.56842E-4,.565E-5,0
STARLINK-1498,2020-038BE,2022-06-15T11:22:45.032448,15.06388292,.0001655,53.0550,196.3450,52.8341,307.2799,0,U,45782,999,11221,-.1181E-3,-.204E-4,0
STARLINK-1505,2020-038BF,2022-06-15T08:16:58.322208,15.06389367,.0001465,53.0538,196.9140,66.2465,293.8678,0,U,45783,999,11219,.14401E-4,-.67E-6,0
STARLINK-1510,2020-038BG,2022-06-15T09:15:21.246912,15.06389961,.0001734,53.0528,196.7237,58.2672,301.8485,0,U,45784,999,11219,-.68015E-4,-.1294E-4,0
STARLINK-1512,2020-038BH,2022-06-15T08:48:49.430592,15.06400884,.0001932,53.0541,196.8099,52.5138,307.6026,0,U,45785,999,11219,.133E-3,.17E-4,0
STARLINK-1513,2020-038BJ,2022-06-15T11:38:39.843168,15.06389170,.0001733,53.0553,196.2939,53.2465,306.8683,0,U,45786,999,11221,.23058E-5,-.247E-5,0
STARLINK-1517,2020-038BK,2022-06-15T08:38:11.570496,15.06400475,.0001617,53.0550,196.8552,58.9199,301.1948,0,U,45787,999,11219,.35277E-4,.244E-5,0
SKYSAT-C14,2020-038BL,2022-06-15T11:58:30.496512,15.60739128,.0004951,52.9887,335.8842,147.8627,212.2547,0,U,45788,999,11435,.31975E-3,.26658E-3,0
SKYSAT-C16,2020-038BM,2022-06-15T02:58:18.341760,15.60875619,.0006623,52.9957,337.1598,17.3088,342.8148,0,U,45789,999,11429,.38065E-3,.32039E-3,0
